0 ANIK E2
1 21222U 91026A   13280.22742929 -.00000233  00000-0  10000-3 0    71
2 21222 009.2510 050.7770 0001404 247.1634 112.8492 00.99129569 71162
0 ANIK E2
1 21222U 91026A   13282.24487408 -.00000212  00000-0  10000-3 0    81
2 21222 009.2548 050.7537 0001335 247.7332 112.2690 00.99128818 71180
0 ANIK E2
1 21222U 91026A   13285.27113263 -.00000166  00000-0  10000-3 0    91
2 21222 009.2603 050.7191 0001354 249.8561 110.1497 00.99127691 71210
0 ANIK E2
1 21222U 91026A   13287.28864513 -.00000127  00000-0  10000-3 0   104
2 21222 009.2641 050.6960 0001371 248.1667 111.8366 00.99127019 71232
0 ANIK E2
1 21222U 91026A   13290.31485957 -.00000062  00000-0  10000-3 0   112
2 21222 009.2698 050.6614 0001356 246.4616 113.5131 00.99126272 71260
0 ANIK E2
1 21222U 91026A   13293.34108922 -.00000001  00000-0  10000-3 0   126
2 21222 009.2756 050.6270 0001532 241.8508 118.0939 00.99125927 71293
